NORAD_CAT_ID,OBJECT_NAME,OBJECT_TYPE,EPOCH,MEAN_MOTION,ECCENTRICITY,INCLINATION,RA_OF_ASC_NODE,ARG_OF_PERICENTER,MEAN_ANOMALY,BSTAR,MEAN_MOTION_DOT,MEAN_MOTION_DDOT,TLE_LINE0,TLE_LINE1,TLE_LINE2,SEMIMAJOR_AXIS,PERIOD,APOGEE,PERIGEE,DECAYED
52499.0,STARLINK-3894,PAYLOAD,2024-05-25 03:44:47,15.08834551,0.0001324,53.2166,102.9443,90.7838,269.3305,2.9116e-05,1.75e-06,0.0,0 STARLINK-3894,1 52499U 22049BA  24146.15610202  .00000175  00000-0  29116-4 0  9996,2 52499  53.2166 102.9443 0001324  90.7838 269.3305 15.08834551113892,6917.897,95.438,540.678,538.846,0.0
52499.0,STARLINK-3894,PAYLOAD,2024-05-26 03:35:34,15.08843131,0.0001245,53.2166,98.4831,82.9203,277.193,-7.5873e-05,-1.495e-05,0.0,0 STARLINK-3894,1 52499U 22049BA  24147.14970279 -.00001495  00000-0 -75873-4 0  9998,2 52499  53.2166  98.4831 0001245  82.9203 277.1930 15.08843131113887,6917.871,95.437,540.597,538.875,0.0
52499.0,STARLINK-3894,PAYLOAD,2024-05-26 21:04:49,15.08833102,0.0001361,53.2174,95.2141,87.8027,272.3121,6.2635e-05,7.09e-06,0.0,0 STARLINK-3894,1 52499U 22049BA  24147.87834566  .00000709  00000-0  62635-4 0  9993,2 52499  53.2174  95.2141 0001361  87.8027 272.3121 15.08833102114159,6917.901,95.438,540.708,538.825,0.0
52499.0,STARLINK-3894,PAYLOAD,2024-05-27 12:58:40,15.08831777,0.0001662,53.2186,92.2518,117.2551,242.8611,8.5604e-05,1.074e-05,0.0,0 STARLINK-3894,1 52499U 22049BA  24148.54074952  .00001074  00000-0  85604-4 0  9990,2 52499  53.2186  92.2518 0001662 117.2551 242.8611 15.08831777114096,6917.906,95.438,540.92,538.621,0.0
52499.0,STARLINK-3894,PAYLOAD,2024-05-28 01:41:45,15.08835733,0.0001288,53.2173,89.8601,93.7144,266.3995,3.3187e-05,2.4e-06,0.0,0 STARLINK-3894,1 52499U 22049BA  24149.07066898  .00000240  00000-0  33187-4 0  9992,2 52499  53.2173  89.8601 0001288  93.7144 266.3995 15.08835733114336,6917.893,95.438,540.649,538.867,0.0
52499.0,STARLINK-3894,PAYLOAD,2024-05-28 12:49:27,15.08836081,0.0001247,53.2172,87.7791,93.266,266.8474,3.6012e-05,2.85e-06,0.0,0 STARLINK-3894,1 52499U 22049BA  24149.53434968  .00000285  00000-0  36012-4 0  9999,2 52499  53.2172  87.7791 0001247  93.2660 266.8474 15.08836081114249,6917.892,95.438,540.62,538.895,0.0
52499.0,STARLINK-3894,PAYLOAD,2024-05-29 04:43:19,15.08837398,0.0001316,53.2173,84.8055,100.6125,259.5016,6.5273e-05,7.51e-06,0.0,0 STARLINK-3894,1 52499U 22049BA  24150.19674899  .00000751  00000-0  65273-4 0  9991,2 52499  53.2173  84.8055 0001316 100.6125 259.5016 15.08837398114509,6917.888,95.438,540.664,538.843,0.0
52499.0,STARLINK-3894,PAYLOAD,2024-05-30 04:34:05,15.08844947,0.0001415,53.2182,80.342,86.5067,273.6087,9.4221e-05,1.212e-05,0.0,0 STARLINK-3894,1 52499U 22049BA  24151.19034506  .00001212  00000-0  94221-4 0  9995,2 52499  53.2182  80.3420 0001415  86.5067 273.6087 15.08844947114494,6917.865,95.437,540.709,538.751,0.0
52499.0,STARLINK-3894,PAYLOAD,2024-05-31 04:24:53,15.08842206,0.0001521,53.2188,75.8796,81.7138,278.4027,4.4386e-05,4.19e-06,0.0,0 STARLINK-3894,1 52499U 22049BA  24152.18394726  .00000419  00000-0  44386-4 0  9993,2 52499  53.2188  75.8796 0001521  81.7138 278.4027 15.08842206114807,6917.874,95.437,540.791,538.686,0.0
52499.0,STARLINK-3894,PAYLOAD,2024-06-01 01:04:54,15.0881555,0.0001752,53.2215,72.0168,122.7901,237.326,0.00024367,3.59e-05,0.0,0 STARLINK-3894,1 52499U 22049BA  24153.04507204  .00003590  00000-0  24367-3 0  9995,2 52499  53.2215  72.0168 0001752 122.7901 237.3260 15.08815550114939,6917.955,95.439,541.032,538.608,0.0
52499.0,STARLINK-3894,PAYLOAD,2024-06-01 12:12:35,15.08843878,0.0001536,53.2197,69.9374,101.1536,258.9628,9.9973e-08,-2.86e-06,0.0,0 STARLINK-3894,1 52499U 22049BA  24153.50874452 -.00000286  00000-0  99973-7 0  9997,2 52499  53.2197  69.9374 0001536 101.1536 258.9628 15.08843878115007,6917.869,95.437,540.796,538.671,0.0
52499.0,STARLINK-3894,PAYLOAD,2024-06-02 04:06:27,15.08838826,0.0001622,53.2204,66.9647,105.0775,255.0397,-1.1115e-05,-4.65e-06,0.0,0 STARLINK-3894,1 52499U 22049BA  24154.17115031 -.00000465  00000-0 -11115-4 0  9991,2 52499  53.2204  66.9647 0001622 105.0775 255.0397 15.08838826115109,6917.884,95.438,540.871,538.627,0.0
52499.0,STARLINK-3894,PAYLOAD,2024-06-03 10:18:46,15.08845052,0.0001685,53.2201,61.3179,94.2155,265.903,8.3923e-05,1.048e-05,0.0,0 STARLINK-3894,1 52499U 22049BA  24155.42970496  .00001048  00000-0  83923-4 0  9996,2 52499  53.2201  61.3179 0001685  94.2155 265.9030 15.08845052115298,6917.865,95.437,540.896,538.564,0.0
52499.0,STARLINK-3894,PAYLOAD,2024-06-03 18:15:42,15.08844852,0.0003094,53.2192,59.8292,82.5446,277.5898,0.00014073,1.952e-05,0.0,0 STARLINK-3894,1 52499U 22049BA  24155.76090592  .00001952  00000-0  14073-3 0  9996,2 52499  53.2192  59.8292 0003094  82.5446 277.5898 15.08844852115180,6917.866,95.437,541.871,537.59,0.0
52499.0,STARLINK-3894,PAYLOAD,2024-06-04 00:37:15,15.08832175,0.0002054,53.2198,58.6401,94.26,265.8627,3.5063e-05,2.7e-06,0.0,0 STARLINK-3894,1 52499U 22049BA  24156.02587791  .00000270  00000-0  35063-4 0  9993,2 52499  53.2198  58.6401 0002054  94.2600 265.8627 15.08832175115389,6917.904,95.438,541.19,538.348,0.0
52499.0,STARLINK-3894,PAYLOAD,2024-06-04 10:09:33,15.0884627,0.00014,53.2199,56.8545,90.6479,269.4673,9.6553e-05,1.249e-05,0.0,0 STARLINK-3894,1 52499U 22049BA  24156.42330721  .00001249  00000-0  96553-4 0  9994,2 52499  53.2199  56.8545 0001400  90.6479 269.4673 15.08846270115446,6917.861,95.437,540.695,538.758,0.0
52499.0,STARLINK-3894,PAYLOAD,2024-06-04 22:52:39,15.08846507,0.0001627,53.2218,54.4787,88.0985,272.0194,-7.844e-05,-1.536e-05,0.0,0 STARLINK-3894,1 52499U 22049BA  24156.95323590 -.00001536  00000-0 -78440-4 0  9994,2 52499  53.2218  54.4787 0001627  88.0985 272.0194 15.08846507115366,6917.86,95.437,540.851,538.6,0.0
52499.0,STARLINK-3894,PAYLOAD,2024-06-05 10:00:20,15.0885724,0.0001376,53.219,52.3951,74.1452,285.9692,0.00011378,1.524e-05,0.0,0 STARLINK-3894,1 52499U 22049BA  24157.41689903  .00001524  00000-0  11378-3 0  9990,2 52499  53.2190  52.3951 0001376  74.1452 285.9692 15.08857240115431,6917.828,95.436,540.645,538.741,0.0
52499.0,STARLINK-3894,PAYLOAD,2024-06-06 09:51:08,15.08839279,0.0001214,53.2189,47.9331,80.4919,279.621,-3.9715e-05,-9.2e-06,0.0,0 STARLINK-3894,1 52499U 22049BA  24158.41051591 -.00000920  00000-0 -39715-4 0  9994,2 52499  53.2189  47.9331 0001214  80.4919 279.6210 15.08839279115742,6917.883,95.438,540.587,538.908,0.0
52499.0,STARLINK-3894,PAYLOAD,2024-06-06 17:48:05,15.088201,0.000162,53.2177,46.4456,85.5716,274.5461,-5.1414e-05,-1.106e-05,0.0,0 STARLINK-3894,1 52499U 22049BA  24158.74173149 -.00001106  00000-0 -51414-4 0  9991,2 52499  53.2177  46.4456 0001620  85.5716 274.5461 15.08820100115793,6917.941,95.439,540.927,538.686,0.0
52499.0,STARLINK-3894,PAYLOAD,2024-06-07 16:03:27,15.08853736,0.0002103,53.213,42.2843,76.9412,283.1815,-6.2503e-06,-3.88e-06,0.0,0 STARLINK-3894,1 52499U 22049BA  24159.66906905 -.00000388  00000-0 -62503-5 0  9990,2 52499  53.2130  42.2843 0002103  76.9412 283.1815 15.08853736115936,6917.838,95.437,541.158,538.249,0.0
52499.0,STARLINK-3894,PAYLOAD,2024-06-07 22:25:00,15.08831794,0.0001378,53.2181,41.0967,82.6931,277.4218,0.00019933,2.885e-05,0.0,0 STARLINK-3894,1 52499U 22049BA  24159.93403561  .00002885  00000-0  19933-3 0  9999,2 52499  53.2181  41.0967 0001378  82.6931 277.4218 15.08831794115819,6917.905,95.438,540.724,538.817,0.0
52499.0,STARLINK-3894,PAYLOAD,2024-06-08 09:32:41,15.08848226,0.0001552,53.2196,39.0114,96.2616,263.8553,0.00023585,3.468e-05,0.0,0 STARLINK-3894,1 52499U 22049BA  24160.39770462  .00003468  00000-0  23585-3 0  9994,2 52499  53.2196  39.0114 0001552  96.2616 263.8553 15.08848226115887,6917.855,95.437,540.794,538.647,0.0
52499.0,STARLINK-3894,PAYLOAD,2024-06-08 22:15:48,15.08826063,0.0001569,53.218,36.6336,97.0242,263.0929,5.6675e-05,6.14e-06,0.0,0 STARLINK-3894,1 52499U 22049BA  24160.92764646  .00000614  00000-0  56675-4 0  9997,2 52499  53.2180  36.6336 0001569  97.0242 263.0929 15.08826063115964,6917.923,95.438,540.873,538.703,0.0
52499.0,STARLINK-3894,PAYLOAD,2024-06-09 01:26:34,15.08834895,0.0001369,53.2193,36.0385,100.2219,259.8928,-2.1577e-05,-6.31e-06,0.0,0 STARLINK-3894,1 52499U 22049BA  24161.06012272 -.00000631  00000-0 -21577-4 0  9998,2 52499  53.2193  36.0385 0001369 100.2219 259.8928 15.08834895116140,6917.896,95.438,540.708,538.814,0.0
52499.0,STARLINK-3894,PAYLOAD,2024-06-09 22:06:35,15.08836634,0.000141,53.2175,32.1739,89.0607,271.0547,-5.9945e-06,-3.83e-06,0.0,0 STARLINK-3894,1 52499U 22049BA  24161.92124451 -.00000383  00000-0 -59945-5 0  9991,2 52499  53.2175  32.1739 0001410  89.0607 271.0547 15.08836634116115,6917.891,95.438,540.731,538.78,0.0
52499.0,STARLINK-3894,PAYLOAD,2024-06-09 23:41:58,15.08841913,0.0001277,53.2191,31.8755,98.8825,261.2312,-4.5643e-05,-1.014e-05,0.0,0 STARLINK-3894,1 52499U 22049BA  24161.98748079 -.00001014  00000-0 -45643-4 0  9996,2 52499  53.2191  31.8755 0001277  98.8825 261.2312 15.08841913116283,6917.875,95.437,540.623,538.856,0.0
52499.0,STARLINK-3894,PAYLOAD,2024-06-10 21:57:22,15.08828127,9.68e-05,53.2192,27.7167,89.8727,270.2377,0.0001532,2.15e-05,0.0,0 STARLINK-3894,1 52499U 22049BA  24162.91484637  .00002150  00000-0  15320-3 0  9995,2 52499  53.2192  27.7167 0000968  89.8727 270.2377 15.08828127116421,6917.917,95.438,540.451,539.112,0.0
52499.0,STARLINK-3894,PAYLOAD,2024-06-11 07:29:40,15.0886115,0.0001241,53.2198,25.9329,100.1037,260.0095,-0.00010984,-2.037e-05,0.0,0 STARLINK-3894,1 52499U 22049BA  24163.31227275 -.00002037  00000-0 -10984-3 0  9990,2 52499  53.2198  25.9329 0001241 100.1037 260.0095 15.08861150116329,6917.816,95.436,540.539,538.822,0.0
52499.0,STARLINK-3894,PAYLOAD,2024-06-11 21:48:09,15.0883802,0.0001421,53.22,23.259,105.0923,255.0227,8.0206e-05,9.89e-06,0.0,0 STARLINK-3894,1 52499U 22049BA  24163.90844436  .00000989  00000-0  80206-4 0  9996,2 52499  53.2200  23.2590 0001421 105.0923 255.0227 15.08838020116570,6917.886,95.438,540.734,538.768,0.0
